{
  "norad_id": 56474,
  "name": "STARLINK-5524",
  "history": [
    {
      "epoch": "2026-03-28T08:57:50.495040Z",
      "apogee_km": 574.4161415527151,
      "perigee_km": 569.6986276122361,
      "latitude_deg": 8.352449246708334e-05,
      "longitude_deg": 117.26775903172602,
      "height_km": 574.4970279210117,
      "semi_major_axis_km": 6950.194384582475,
      "eccentricity": 0.00033938,
      "inclination_deg": 69.9992,
      "raan_deg": 77.523,
      "arg_perigee_deg": 269.7116,
      "mean_anomaly_deg": 90.3655,
      "mean_motion_rev_day": 14.98329517
    },
    {
      "epoch": "2026-03-29T05:47:35.118816Z",
      "apogee_km": 574.4278175889704,
      "perigee_km": 569.6780577855561,
      "latitude_deg": 5.073493443520497e-05,
      "longitude_deg": 161.78839545342004,
      "height_km": 574.4958997625,
      "semi_major_axis_km": 6950.189937687263,
      "eccentricity": 0.0003417,
      "inclination_deg": 69.9993,
      "raan_deg": 75.335,
      "arg_perigee_deg": 269.6343,
      "mean_anomaly_deg": 90.4425,
      "mean_motion_rev_day": 14.98330955
    },
    {
      "epoch": "2026-03-30T02:37:19.734816Z",
      "apogee_km": 574.4055153062309,
      "perigee_km": 569.6877306629476,
      "latitude_deg": -1.0088118133388845e-05,
      "longitude_deg": -153.69124515074515,
      "height_km": 574.4936100995628,
      "semi_major_axis_km": 6950.1836229845885,
      "eccentricity": 0.0003394,
      "inclination_deg": 69.9994,
      "raan_deg": 73.1467,
      "arg_perigee_deg": 269.5339,
      "mean_anomaly_deg": 90.5431,
      "mean_motion_rev_day": 14.98332997
    },
    {
      "epoch": "2026-03-30T05:49:35.831712Z",
      "apogee_km": 574.4013085114593,
      "perigee_km": 569.6903355910172,
      "latitude_deg": -6.40435353114631e-05,
      "longitude_deg": 157.77336210955644,
      "height_km": 574.4980157310855,
      "semi_major_axis_km": 6950.182822051238,
      "eccentricity": 0.00033891,
      "inclination_deg": 69.9994,
      "raan_deg": 72.81,
      "arg_perigee_deg": 269.4066,
      "mean_anomaly_deg": 90.6704,
      "mean_motion_rev_day": 14.98333256
    },
    {
      "epoch": "2026-03-30T09:01:51.830112Z",
      "apogee_km": 574.3762290255409,
      "perigee_km": 569.706682128377,
      "latitude_deg": -8.87659595508963e-06,
      "longitude_deg": 109.23832039519729,
      "height_km": 574.4935818636961,
      "semi_major_axis_km": 6950.178455576958,
      "eccentricity": 0.00033593,
      "inclination_deg": 69.9995,
      "raan_deg": 72.4732,
      "arg_perigee_deg": 269.4024,
      "mean_anomaly_deg": 90.675,
      "mean_motion_rev_day": 14.98334668
    }
  ]
}